NORAD_CAT_ID,OBJECT_NAME,OBJECT_TYPE,EPOCH,MEAN_MOTION,ECCENTRICITY,INCLINATION,RA_OF_ASC_NODE,ARG_OF_PERICENTER,MEAN_ANOMALY,BSTAR,MEAN_MOTION_DOT,MEAN_MOTION_DDOT,TLE_LINE0,TLE_LINE1,TLE_LINE2,SEMIMAJOR_AXIS,PERIOD,APOGEE,PERIGEE,DECAYED
53158.0,STARLINK-4054,PAYLOAD,2022-07-21 18:00:00,15.89094289,0.0035826,53.2174,26.5909,52.3195,47.5055,-0.0041674999999999,-0.0129041,0.00047297,0 STARLINK-4054,1 53158U 22083AC  22202.75001157 -.01290410  47297-3 -41675-2 0  9997,2 53158  53.2174  26.5909 0035826  52.3195  47.5055 15.89094289  1301,6682.958000000001,90.618,328.765,280.881,0.0
53158.0,STARLINK-4054,PAYLOAD,2022-07-22 04:00:00,15.88037433,0.0031149,53.2175,24.4815,51.9586,272.0979,-0.0047494999999999,-0.01373205,0.00052456,0 STARLINK-4054,1 53158U 22083AC  22203.16667824 -.01373205  52456-3 -47495-2 0  9995,2 53158  53.2175  24.4815 0031149  51.9586 272.0979 15.88037433  1361,6685.9230000000025,90.678,328.6140000000001,286.962,0.0
53158.0,STARLINK-4054,PAYLOAD,2022-07-22 06:00:00,15.87786779,0.0030381,53.2177,24.0595,51.59,29.1292,-0.0045931999999999,-0.01309323,0.00047983,0 STARLINK-4054,1 53158U 22083AC  22203.25001157 -.01309323  47983-3 -45932-2 0  9999,2 53158  53.2177  24.0595 0030381  51.5900  29.1292 15.87786779  1303,6686.626,90.692,328.806,288.177,0.0
53158.0,STARLINK-4054,PAYLOAD,2022-07-22 12:00:00,15.87128065,0.0027678,53.2177,22.7954,50.9069,19.37,-0.0047807,-0.01309605,0.00047713,0 STARLINK-4054,1 53158U 22083AC  22203.50001157 -.01309605  47713-3 -47807-2 0  9994,2 53158  53.2177  22.7954 0027678  50.9069  19.3700 15.87128065  1416,6688.476,90.73,328.8540000000001,291.829,0.0
53158.0,STARLINK-4054,PAYLOAD,2022-07-22 20:00:01,15.86273206,0.0024261,53.2175,21.1149,49.6818,125.7386,-0.0052195,-0.01359669,0.00050694,0 STARLINK-4054,1 53158U 22083AC  22203.83334491 -.01359669  50694-3 -52195-2 0  9993,2 53158  53.2175  21.1149 0024261  49.6818 125.7386 15.86273206  1470,6690.879,90.779,328.977,296.511,0.0
53158.0,STARLINK-4054,PAYLOAD,2022-07-22 22:00:00,15.86066114,0.0022716999999999,53.2174,20.6949,49.8046,241.7348,-0.0053969,-0.01387119,0.00052479,0 STARLINK-4054,1 53158U 22083AC  22203.91667824 -.01387119  52479-3 -53969-2 0  9995,2 53158  53.2174  20.6949 0022717  49.8046 241.7348 15.86066114  1307,6691.462,90.791,328.527,298.126,0.0
53158.0,STARLINK-4054,PAYLOAD,2022-07-23 04:00:00,15.85411662,0.0019578,53.2174,19.4331,50.5668,228.9459,-0.0056428,-0.012294,0.0,0 STARLINK-4054,1 53158U 22083AC  22204.16667824 -.01229400  00000-0 -56428-2 0  9994,2 53158  53.2174  19.4331 0019578  50.5668 228.9459 15.85411662  1523,6693.303000000001,90.828,328.272,302.064,0.0
53158.0,STARLINK-4054,PAYLOAD,2022-07-23 14:00:01,15.84283948,0.0015334,53.2177,17.3349,47.9802,90.2448,-0.0057256,-0.01177824,0.0,0 STARLINK-4054,1 53158U 22083AC  22204.58335648 -.01177824  00000-0 -57256-2 0  9998,2 53158  53.2177  17.3349 0015334  47.9802  90.2448 15.84283948  1305,6696.479,90.893,328.612,308.075,0.0
53158.0,STARLINK-4054,PAYLOAD,2022-07-23 22:00:00,15.83429104,0.00121,53.2176,15.6611,47.0614,192.8092,-0.0062136,-0.01238397,0.0,0 STARLINK-4054,1 53158U 22083AC  22204.91667824 -.01238397  00000-0 -62136-2 0  9995,2 53158  53.2176  15.6611 0012100  47.0614 192.8092 15.83429104  1306,6698.889,90.942,328.8590000000001,312.648,0.0
53158.0,STARLINK-4054,PAYLOAD,2022-07-24 14:00:01,15.81644338,0.0006086,53.2175,12.3146,25.9084,54.2461,-0.0065048,-0.01188939,0.0,0 STARLINK-4054,1 53158U 22083AC  22205.58334491 -.01188939  00000-0 -65048-2 0  9991,2 53158  53.2175  12.3146 0006086  25.9084  54.2461 15.81644338  1301,6703.927,91.044,329.872,321.712,0.0
53158.0,STARLINK-4054,PAYLOAD,2022-07-24 22:00:00,15.80775194,0.0004339,53.2173,10.647,14.3778,164.3248,-0.006878,-0.01203563,0.0,0 STARLINK-4054,1 53158U 22083AC  22205.91667824 -.01203563  00000-0 -68780-2 0  9994,2 53158  53.2173  10.6470 0004339  14.3778 164.3248 15.80775194  1806,6706.384,91.095,331.159,325.339,0.0
53158.0,STARLINK-4054,PAYLOAD,2022-07-25 14:00:01,15.79023373,0.0003966,53.2178,7.3135,359.0603,13.5784,-0.0075214,-0.01212404,0.0,0 STARLINK-4054,1 53158U 22083AC  22206.58334491 -.01212404  00000-0 -75214-2 0  9993,2 53158  53.2178   7.3135 0003966 359.0603  13.5784 15.79023373  1907,6711.344,91.196,335.87,330.547,0.0
53158.0,STARLINK-4054,PAYLOAD,2022-07-25 22:00:00,15.78139466,0.0003698,53.2174,5.6521,2.9283,105.0956,-0.0077637,-0.01202998,0.0,0 STARLINK-4054,1 53158U 22083AC  22206.91667824 -.01202998  00000-0 -77637-2 0  9997,2 53158  53.2174   5.6521 0003698   2.9283 105.0956 15.78139466  1305,6713.849,91.247,338.19699999999995,333.231,0.0
53158.0,STARLINK-4054,PAYLOAD,2022-07-26 04:00:01,15.77488212,0.0004016,53.2175,4.4048,349.7368,99.1965,-0.0080911,-0.01215926,0.0,0 STARLINK-4054,1 53158U 22083AC  22207.16668981 -.01215926  00000-0 -80911-2 0  9994,2 53158  53.2175   4.4048 0004016 349.7368  99.1965 15.77488212  2004,6715.696999999999,91.284,340.259,334.865,0.0
53158.0,STARLINK-4054,PAYLOAD,2022-07-26 14:00:01,15.76377006,0.0004891,53.2174,2.332,329.1185,326.5081,-0.0083305,-0.01194428,0.0,0 STARLINK-4054,1 53158U 22083AC  22207.58334491 -.01194428  00000-0 -83305-2 0  9999,2 53158  53.2174   2.3320 0004891 329.1185 326.5081 15.76377006  1308,6718.853,91.349,344.004,337.431,0.0
53158.0,STARLINK-4054,PAYLOAD,2022-07-26 20:00:01,15.75717714,3.950000000000001e-05,53.2174,1.0909,140.0458,134.8424,-0.0085925,-0.01193505,0.0,0 STARLINK-4054,1 53158U 22083AC  22207.83334491 -.01193505  00000-0 -85925-2 0  9992,2 53158  53.2174   1.0909 0000395 140.0458 134.8424 15.75717714  2108,6720.727,91.387,342.857,342.326,0.0
53158.0,STARLINK-4054,PAYLOAD,2022-07-26 22:00:00,15.75505819,4.52e-05,53.2171,0.6769,119.0334,268.8064,-0.0087591,-0.01203963,0.0,0 STARLINK-4054,1 53158U 22083AC  22207.91667824 -.01203963  00000-0 -87591-2 0  9991,2 53158  53.2171   0.6769 0000452 119.0334 268.8064 15.75505819  1307,6721.329000000002,91.399,343.4980000000001,342.89,0.0
53158.0,STARLINK-4054,PAYLOAD,2022-07-27 14:00:01,15.73612269,0.0001197,53.2177,357.3698,48.8239,160.2954,-0.0039003999999999,-0.00524432,0.0,0 STARLINK-4054,1 53158U 22083AC  22208.58334491 -.00524432  00000-0 -39004-2 0  9998,2 53158  53.2177 357.3698 0001197  48.8239 160.2954 15.73612269  2227,6726.72,91.509,349.39,347.78,0.0
53158.0,STARLINK-4054,PAYLOAD,2022-07-27 22:00:00,15.73203764,0.0001123,53.2172,355.7207,67.5011,230.81,1.825e-05,1.943e-05,0.0,0 STARLINK-4054,1 53158U 22083AC  22208.91667824  .00001943  00000-0  18250-4 0  9991,2 53158  53.2172 355.7207 0001123  67.5011 230.8100 15.73203764  2273,6727.884,91.533,350.505,348.994,0.0
53158.0,STARLINK-4054,PAYLOAD,2022-07-28 06:00:00,15.73244318,9.75e-05,53.2173,354.0683,56.5784,330.6933,-0.00025763,-0.00036686,0.0,0 STARLINK-4054,1 53158U 22083AC  22209.25001157 -.00036686  00000-0 -25763-3 0  9990,2 53158  53.2173 354.0683 0000975  56.5784 330.6933 15.73244318  2322,6727.769,91.531,350.29,348.978,0.0
53158.0,STARLINK-4054,PAYLOAD,2022-07-28 14:00:01,15.73245836,0.0001082999999999,53.2174,352.4201,50.1465,66.0853,-0.00043343,-0.00061126,0.0,0 STARLINK-4054,1 53158U 22083AC  22209.58334491 -.00061126  00000-0 -43343-3 0  9997,2 53158  53.2174 352.4201 0001083  50.1465  66.0853 15.73245836  1302,6727.764,91.531,350.358,348.901,0.0
53158.0,STARLINK-4054,PAYLOAD,2022-07-28 22:00:00,15.73173817,0.0001264,53.217,350.7717,43.0384,162.1599,0.00026299,0.00036407,0.0,0 STARLINK-4054,1 53158U 22083AC  22209.91667824  .00036407  00000-0  26299-3 0  9996,2 53158  53.2170 350.7717 0001264  43.0384 162.1599 15.73173817  1307,6727.97,91.535,350.685,348.9840000000001,0.0
53158.0,STARLINK-4054,PAYLOAD,2022-07-29 06:00:00,15.73168503,0.0001159999999999,53.2179,349.1198,52.927,241.1878,0.00058764,0.00082553,0.0,0 STARLINK-4054,1 53158U 22083AC  22210.25001157  .00082553  00000-0  58764-3 0  9991,2 53158  53.2179 349.1198 0001160  52.9270 241.1878 15.73168503  2483,6727.985,91.535,350.63,349.07,0.0
53158.0,STARLINK-4054,PAYLOAD,2022-07-29 14:00:01,15.73255279,0.000128,53.2181,347.4717,46.6214,336.4049,-0.00054215,-0.000762,0.0,0 STARLINK-4054,1 53158U 22083AC  22210.58334491 -.00076200  00000-0 -54215-3 0  9998,2 53158  53.2181 347.4717 0001280  46.6214 336.4049 15.73255279  1300,6727.738,91.53,350.464,348.741,0.0
53158.0,STARLINK-4054,PAYLOAD,2022-07-29 20:00:01,15.73184429,0.0001320999999999,53.2179,346.2356,38.4284,321.3331,0.00012766,0.00017321,0.0,0 STARLINK-4054,1 53158U 22083AC  22210.83334491  .00017321  00000-0  12766-3 0  9998,2 53158  53.2179 346.2356 0001321  38.4284 321.3331 15.73184429  2570,6727.94,91.534,350.6930000000001,348.916,0.0
53158.0,STARLINK-4054,PAYLOAD,2022-07-29 22:00:00,15.73186986,0.0001274999999999,53.2177,345.8228,35.6424,76.3484,9.6513e-05,0.00012938,0.0,0 STARLINK-4054,1 53158U 22083AC  22210.91667824  .00012938  00000-0  96513-4 0  9998,2 53158  53.2177 345.8228 0001275  35.6424  76.3484 15.73186986  1300,6727.932,91.534,350.655,348.939,0.0
53158.0,STARLINK-4054,PAYLOAD,2022-07-30 14:00:01,15.73236192,0.0001239,53.2178,342.5239,39.9855,249.8352,-0.00031188,-0.00044228,0.0,0 STARLINK-4054,1 53158U 22083AC  22211.58334491 -.00044228  00000-0 -31188-3 0  9998,2 53158  53.2178 342.5239 0001239  39.9855 249.8352 15.73236192  1308,6727.792,91.531,350.491,348.8230000000001,0.0
53158.0,STARLINK-4054,PAYLOAD,2022-07-30 20:00:01,15.73080388,0.0001127,53.2172,341.2873,41.5156,225.0614,0.0010549,0.00149319,0.0,0 STARLINK-4054,1 53158U 22083AC  22211.83334491  .00149319  00000-0  10549-2 0  9998,2 53158  53.2172 341.2873 0001127  41.5156 225.0614 15.73080388  2730,6728.236,91.54,350.8590000000001,349.343,0.0
53158.0,STARLINK-4054,PAYLOAD,2022-07-30 22:00:00,15.73077455,0.0001036,53.217,340.8745,44.2892,334.5,0.0013617,0.00193941,0.0,0 STARLINK-4054,1 53158U 22083AC  22211.91667824  .00193941  00000-0  13617-2 0  9995,2 53158  53.2170 340.8745 0001036  44.2892 334.5000 15.73077455  1305,6728.245,91.54,350.807,349.413,0.0
